NORAD_CAT_ID,OBJECT_NAME,OBJECT_TYPE,EPOCH,MEAN_MOTION,ECCENTRICITY,INCLINATION,RA_OF_ASC_NODE,ARG_OF_PERICENTER,MEAN_ANOMALY,BSTAR,MEAN_MOTION_DOT,MEAN_MOTION_DDOT,TLE_LINE0,TLE_LINE1,TLE_LINE2,SEMIMAJOR_AXIS,PERIOD,APOGEE,PERIGEE,DECAYED
51120.0,STARLINK-3398,PAYLOAD,2024-06-23 09:49:33,15.08838478,0.0001249,53.2157,211.6338,89.0568,271.0567,7.8812e-05,9.67e-06,0.0,0 STARLINK-3398,1 51120U 22005S   24175.40941584  .00000967  00000-0  78812-4 0  9994,2 51120  53.2157 211.6338 0001249  89.0568 271.0567 15.08838478135740,6917.885,95.438,540.614,538.886,0.0
51120.0,STARLINK-3398,PAYLOAD,2024-06-24 11:15:43,15.08845003,0.0001243,53.2156,206.8756,88.0382,272.0753,0.00014013,1.943e-05,0.0,0 STARLINK-3398,1 51120U 22005S   24176.46925021  .00001943  00000-0  14013-3 0  9996,2 51120  53.2156 206.8756 0001243  88.0382 272.0753 15.08845003135904,6917.865,95.437,540.59,538.87,0.0
51120.0,STARLINK-3398,PAYLOAD,2024-06-25 09:31:07,15.08840938,0.0001344,53.2159,202.7126,83.6753,276.4392,5.1692e-05,5.35e-06,0.0,0 STARLINK-3398,1 51120U 22005S   24177.39661483  .00000535  00000-0  51692-4 0  9999,2 51120  53.2159 202.7126 0001344  83.6753 276.4392 15.08840938136043,6917.878,95.437,540.672,538.813,0.0
51120.0,STARLINK-3398,PAYLOAD,2024-06-26 07:46:31,15.08845215,0.000146,53.2159,198.5505,77.3504,282.7651,6.1339e-05,6.89e-06,0.0,0 STARLINK-3398,1 51120U 22005S   24178.32397086  .00000689  00000-0  61339-4 0  9997,2 51120  53.2159 198.5505 0001460  77.3504 282.7651 15.08845215135072,6917.864,95.437,540.739,538.719,0.0
51120.0,STARLINK-3398,PAYLOAD,2024-06-27 04:26:32,15.08840174,0.0001303,53.2147,194.6884,87.4202,272.6939,6.6008e-05,7.63e-06,0.0,0 STARLINK-3398,1 51120U 22005S   24179.18509359  .00000763  00000-0  66008-4 0  9991,2 51120  53.2147 194.6884 0001303  87.4202 272.6939 15.08840174136313,6917.88,95.438,540.646,538.843,0.0
51120.0,STARLINK-3398,PAYLOAD,2024-06-27 07:37:18,15.0883827,0.0001229,53.2148,194.0903,89.9521,270.1612,4.6124e-05,4.46e-06,0.0,0 STARLINK-3398,1 51120U 22005S   24179.31757448  .00000446  00000-0  46124-4 0  9995,2 51120  53.2148 194.0903 0001229  89.9521 270.1612 15.08838270135222,6917.886,95.438,540.601,538.9,0.0
51120.0,STARLINK-3398,PAYLOAD,2024-06-28 07:28:05,15.08840404,0.000124,53.2143,189.6293,91.505,268.6084,5.982e-05,6.64e-06,0.0,0 STARLINK-3398,1 51120U 22005S   24180.31117395  .00000664  00000-0  59820-4 0  9997,2 51120  53.2143 189.6293 0001240  91.5050 268.6084 15.08840404136484,6917.879,95.438,540.602,538.886,0.0
51120.0,STARLINK-3398,PAYLOAD,2024-06-29 10:29:38,15.08840497,0.0001234,53.2145,184.5744,90.7114,269.4019,0.00011625,1.563e-05,0.0,0 STARLINK-3398,1 51120U 22005S   24181.43725396  .00001563  00000-0  11625-3 0  9996,2 51120  53.2145 184.5744 0001234  90.7114 269.4019 15.08840497136654,6917.879,95.438,540.598,538.89,0.0
51120.0,STARLINK-3398,PAYLOAD,2024-06-29 16:51:11,15.08843637,0.0001267,53.2149,183.3852,91.6952,268.4185,0.00013461,1.855e-05,0.0,0 STARLINK-3398,1 51120U 22005S   24181.70221175  .00001855  00000-0  13461-3 0  9996,2 51120  53.2149 183.3852 0001267  91.6952 268.4185 15.08843637135584,6917.869,95.437,540.611,538.858,0.0
51120.0,STARLINK-3398,PAYLOAD,2024-06-30 03:58:53,15.08836553,0.0001604,53.2153,181.3071,117.9562,242.1593,3.6502e-05,2.93e-06,0.0,0 STARLINK-3398,1 51120U 22005S   24182.16589913  .00000293  00000-0  36502-4 0  9991,2 51120  53.2153 181.3071 0001604 117.9562 242.1593 15.08836553136766,6917.891,95.438,540.866,538.646,0.0
51120.0,STARLINK-3398,PAYLOAD,2024-06-30 07:09:40,15.08833636,0.0001449,53.2156,180.712,106.0192,254.096,6.5994e-08,-2.87e-06,0.0,0 STARLINK-3398,1 51120U 22005S   24182.29838255 -.00000287  00000-0  65994-7 0  9995,2 51120  53.2156 180.7120 0001449 106.0192 254.0960 15.08833636135670,6917.9,95.438,540.767,538.762,0.0
51120.0,STARLINK-3398,PAYLOAD,2024-06-30 16:41:58,15.0883825,0.0001284,53.2152,178.9248,90.3474,269.7666,4.5839e-05,4.42e-06,0.0,0 STARLINK-3398,1 51120U 22005S   24182.69581927  .00000442  00000-0  45839-4 0  9995,2 51120  53.2152 178.9248 0001284  90.3474 269.7666 15.08838250135731,6917.886,95.438,540.639,538.862,0.0
51120.0,STARLINK-3398,PAYLOAD,2024-07-01 05:25:04,15.08836901,0.0001337,53.2156,176.5463,92.7767,267.3378,3.9253e-05,3.37e-06,0.0,0 STARLINK-3398,1 51120U 22005S   24183.22574184  .00000337  00000-0  39253-4 0  9998,2 51120  53.2156 176.5463 0001337  92.7767 267.3378 15.08836901136925,6917.89,95.438,540.68,538.83,0.0
51120.0,STARLINK-3398,PAYLOAD,2024-07-01 08:35:50,15.08839128,0.0001354,53.2157,175.9514,92.6615,267.4532,5.1702e-05,5.35e-06,0.0,0 STARLINK-3398,1 51120U 22005S   24183.35822056  .00000535  00000-0  51702-4 0  9999,2 51120  53.2157 175.9514 0001354  92.6615 267.4532 15.08839128135832,6917.883,95.438,540.685,538.811,0.0
51120.0,STARLINK-3398,PAYLOAD,2024-07-01 16:32:45,15.08842785,0.0001357,53.216,174.4643,88.2267,271.8881,7.874e-05,9.66e-06,0.0,0 STARLINK-3398,1 51120U 22005S   24183.68941781  .00000966  00000-0  78740-4 0  9991,2 51120  53.2160 174.4643 0001357  88.2267 271.8881 15.08842785135884,6917.872,95.437,540.676,538.798,0.0
51120.0,STARLINK-3398,PAYLOAD,2024-07-02 08:26:37,15.08840358,0.0001393,53.216,171.4902,86.3049,273.8103,0.00013934,1.93e-05,0.0,0 STARLINK-3398,1 51120U 22005S   24184.35181972  .00001930  00000-0  13934-3 0  9999,2 51120  53.2160 171.4902 0001393  86.3049 273.8103 15.08840358137094,6917.879,95.438,540.708,538.781,0.0
51120.0,STARLINK-3398,PAYLOAD,2024-07-02 16:23:32,15.08844376,0.0001396,53.2158,170.0042,87.7438,272.3714,0.00013859,1.919e-05,0.0,0 STARLINK-3398,1 51120U 22005S   24184.68301686  .00001919  00000-0  13859-3 0  9994,2 51120  53.2158 170.0042 0001396  87.7438 272.3714 15.08844376136030,6917.867,95.437,540.698,538.766,0.0
51120.0,STARLINK-3398,PAYLOAD,2024-07-03 03:31:15,15.08833276,0.000142,53.2157,167.9234,89.351,270.7645,4.5835e-05,4.41e-06,0.0,0 STARLINK-3398,1 51120U 22005S   24185.14670700  .00000441  00000-0  45835-4 0  9991,2 51120  53.2157 167.9234 0001420  89.3510 270.7645 15.08833276137217,6917.901,95.438,540.748,538.784,0.0
51120.0,STARLINK-3398,PAYLOAD,2024-07-03 16:14:19,15.08842957,0.0001302,53.2153,165.5413,97.4617,262.6523,6.4853e-05,7.44e-06,0.0,0 STARLINK-3398,1 51120U 22005S   24185.67661868  .00000744  00000-0  64853-4 0  9991,2 51120  53.2153 165.5413 0001302  97.4617 262.6523 15.08842957137292,6917.871,95.437,540.637,538.836,0.0
51120.0,STARLINK-3398,PAYLOAD,2024-07-04 08:08:11,15.08844489,0.0001408,53.2159,162.5681,98.1047,262.0105,5.1877e-05,5.38e-06,0.0,0 STARLINK-3398,1 51120U 22005S   24186.33901703  .00000538  00000-0  51877-4 0  9993,2 51120  53.2159 162.5681 0001408  98.1047 262.0105 15.08844489136284,6917.867,95.437,540.706,538.758,0.0
51120.0,STARLINK-3398,PAYLOAD,2024-07-04 16:05:06,15.08845153,0.0001403,53.2161,161.0812,98.3777,261.7374,6.0279e-05,6.72e-06,0.0,0 STARLINK-3398,1 51120U 22005S   24186.67021516  .00000672  00000-0  60279-4 0  9990,2 51120  53.2161 161.0812 0001403  98.3777 261.7374 15.08845153136333,6917.865,95.437,540.7,538.759,0.0
51120.0,STARLINK-3398,PAYLOAD,2024-07-05 04:48:12,15.08837367,0.0001346,53.216,158.7045,89.345,270.7696,4.5024e-05,4.29e-06,0.0,0 STARLINK-3398,1 51120U 22005S   24187.20014166  .00000429  00000-0  45024-4 0  9994,2 51120  53.2160 158.7045 0001346  89.3450 270.7696 15.08837367137524,6917.888,95.438,540.685,538.822,0.0
51120.0,STARLINK-3398,PAYLOAD,2024-07-05 07:58:58,15.08840803,0.000135,53.2161,158.1095,97.2178,262.8968,4.7995e-05,4.76e-06,0.0,0 STARLINK-3398,1 51120U 22005S   24187.33261898  .00000476  00000-0  47995-4 0  9995,2 51120  53.2161 158.1095 0001350  97.2178 262.8968 15.08840803136436,6917.878,95.438,540.677,538.809,0.0
51120.0,STARLINK-3398,PAYLOAD,2024-07-06 07:49:46,15.08808672,0.0001551,53.2174,153.6485,100.3649,259.7518,0.00037052,5.609e-05,0.0,0 STARLINK-3398,1 51120U 22005S   24188.32622924  .00005609  00000-0  37052-3 0  9991,2 51120  53.2174 153.6485 0001551 100.3649 259.7518 15.08808672137698,6917.976,95.44,540.914,538.768,0.0
51120.0,STARLINK-3398,PAYLOAD,2024-07-06 14:11:18,15.08840442,0.0001428,53.218,152.459,93.6457,266.4698,4.8461e-06,-2.11e-06,0.0,0 STARLINK-3398,1 51120U 22005S   24188.59118072 -.00000211  00000-0  48461-5 0  9997,2 51120  53.2180 152.4590 0001428  93.6457 266.4698 15.08840442136620,6917.879,95.438,540.732,538.756,0.0
51120.0,STARLINK-3398,PAYLOAD,2024-07-06 22:08:14,15.0883067,0.0001504,53.218,150.9737,93.7274,266.389,-6.8408e-06,-3.97e-06,0.0,0 STARLINK-3398,1 51120U 22005S   24188.92238830 -.00000397  00000-0 -68408-5 0  9998,2 51120  53.2180 150.9737 0001504  93.7274 266.3890 15.08830670136679,6917.909,95.438,540.814,538.733,0.0
51120.0,STARLINK-3398,PAYLOAD,2024-07-07 04:29:46,15.08833239,0.0001446,53.2175,149.7867,95.6743,264.4414,-1.1176e-05,-4.66e-06,0.0,0 STARLINK-3398,1 51120U 22005S   24189.18734810 -.00000466  00000-0 -11176-4 0  9992,2 51120  53.2175 149.7867 0001446  95.6743 264.4414 15.08833239137823,6917.901,95.438,540.766,538.766,0.0
51120.0,STARLINK-3398,PAYLOAD,2024-07-08 13:52:52,15.08841736,0.0001438,53.2174,143.5407,98.31,261.8055,6.4207e-05,7.34e-06,0.0,0 STARLINK-3398,1 51120U 22005S   24190.57838341  .00000734  00000-0  64207-4 0  9990,2 51120  53.2174 143.5407 0001438  98.3100 261.8055 15.08841736136925,6917.875,95.437,540.735,538.745,0.0
51120.0,STARLINK-3398,PAYLOAD,2024-07-08 20:14:25,15.08836601,0.0001528,53.2173,142.3524,100.8454,259.2711,7.6872e-05,9.36e-06,0.0,0 STARLINK-3398,1 51120U 22005S   24190.84334715  .00000936  00000-0  76872-4 0  9991,2 51120  53.2173 142.3524 0001528 100.8454 259.2711 15.08836601138075,6917.891,95.438,540.813,538.699,0.0
51120.0,STARLINK-3398,PAYLOAD,2024-07-09 04:11:19,15.08858246,0.0001332,53.2157,140.8569,68.1363,291.977,0.00023871,3.515e-05,0.0,0 STARLINK-3398,1 51120U 22005S   24191.17452757  .00003515  00000-0  23871-3 0  9991,2 51120  53.2157 140.8569 0001332  68.1363 291.9770 15.08858246138120,6917.825,95.436,540.611,538.768,0.0
